1 27386U 02009A   04293.09811029  .00000067  00000-0  41012-4 0  9990
2 27386 098.5512 357.9549 0001114 099.6032 260.5292 14.32247154137859
1 27386U 02009A   04293.51727205  .00000057  00000-0  37298-4 0  9999
2 27386 098.5513 358.3683 0001100 101.2382 258.8928 14.32247196137916
1 27386U 02009A   04293.86657399  .00000043  00000-0  32306-4 0  9993
2 27386 098.5506 358.7130 0001103 095.3725 264.7582 14.32247162137966
1 27386U 02009A   04294.14601545  .00000062  00000-0  39332-4 0  9994
2 27386 098.5505 358.9887 0001096 097.4988 262.6338 14.32247389138004
1 27386U 02009A   04294.49531679  .00000069  00000-0  41826-4 0  9990
2 27386 098.5504 359.3330 0001083 095.7014 264.4293 14.32247507138055
1 27386U 02009A   04294.70489766  .00000068  00000-0  41245-4 0  9997
2 27386 098.5501 359.5397 0001122 094.4738 265.6562 14.32247541138083
1 27386U 02009A   04294.77475823  .00000068  00000-0  41448-4 0  9998
2 27386 098.5502 359.6085 0001111 094.4161 265.7152 14.32247563138098
1 27386U 02009A   04294.91447886 +.00000056 +00000-0 +37116-4 0  9996
2 27386 098.5502 359.7463 0001123 094.4886 265.6418 14.32247487138118
1 27386U 02009A   04295.19392033  .00000058  00000-0  37817-4 0  9990
2 27386 098.5502 000.0218 0001125 094.7624 265.3688 14.32247549138156
1 27386U 02009A   04295.68294266  .00000058  00000-0  37817-4 0  9993
2 27386 098.5502 000.5038 0001125 093.3195 266.8117 14.32247649138221
1 27386U 02009A   04295.82266332  .00000058  00000-0  37817-4 0  9992
2 27386 098.5502 000.6415 0001125 092.9072 267.2240 14.32247677138245
1 27386U 02009A   04295.89252365 +.00000058 +00000-0 +37817-4 0  9990
2 27386 098.5502 000.7104 0001125 092.7011 267.4301 14.32247691138259
1 27386U 02009A   04296.17196496  .00000058  00000-0  37817-4 0  9994
2 27386 098.5502 000.9858 0001125 091.8766 268.2547 14.32247748138292
1 27386U 02009A   04296.52126657  .00000058  00000-0  37817-4 0  9995
2 27386 098.5502 001.3301 0001125 090.8459 269.2854 14.32247819138345
1 27386U 02009A   04296.87056817  .00000058  00000-0  37817-4 0  9993
2 27386 098.5502 001.6744 0001125 089.8152 270.3160 14.32247891138395
1 27386U 02009A   04296.94042849 +.00000058 +00000-0 +37817-4 0  9991
2 27386 098.5502 001.7433 0001125 089.6091 270.5222 14.32247905138400
1 27386U 02009A   04297.15000944  .00000113  00000-0  58166-4 0  9997
2 27386 098.5494 001.9496 0001073 096.6784 263.4576 14.32248474138438
1 27386U 02009A   04297.49930979  .00000122  00000-0  61437-4 0  9999
2 27386 098.5496 002.2939 0001065 095.3006 264.8304 14.32248667138483
1 27386U 02009A   04297.84861077  .00000158  00000-0  74849-4 0  9990
2 27386 098.5495 002.6381 0001115 095.7444 264.3862 14.32249059138539
1 27386U 02009A   04297.91847112 +.00000156 +00000-0 +74152-4 0  9997
2 27386 098.5495 002.7070 0001117 095.6808 264.4502 14.32249070138546
1 27386U 02009A   04298.19791213  .00000157  00000-0  74564-4 0  9996
2 27386 098.5496 002.9826 0001107 097.6323 262.4991 14.32249192138580
1 27386U 02009A   04298.54721338  .00000163  00000-0  76447-4 0  9995
2 27386 098.5496 003.3269 0001112 096.0806 264.0504 14.32249341138631
1 27386U 02009A   04298.82665450  .00000145  00000-0  70076-4 0  9990
2 27386 098.5494 003.6020 0001081 095.2697 264.8608 14.32249297138678
1 27386U 02009A   04299.17595588  .00000143  00000-0  69352-4 0  9996
2 27386 098.5495 003.9462 0001106 099.6953 260.4366 14.32249403138721
1 27386U 02009A   04299.52525704  .00000134  00000-0  65763-4 0  9990
2 27386 098.5496 004.2906 0001110 098.8627 261.2685 14.32249457138770
1 27386U 02009A   04299.80469783  .00000145  00000-0  70050-4 0  9992
2 27386 098.5495 004.5660 0001113 097.6828 262.4482 14.32249662138813
1 27386U 02009A   04299.94441830 +.00000120 +00000-0 +60851-4 0  9991
2 27386 098.5492 004.7034 0001103 096.2872 263.8421 14.32249496138835
1 27386U 02009A   04300.15399940  .00000121  00000-0  61122-4 0  9994
2 27386 098.5493 004.9101 0001093 095.1823 264.9492 14.32249592138865
1 27386U 02009A   04300.50330053  .00000112  00000-0  57833-4 0  9997
2 27386 098.5494 005.2547 0001084 094.1796 265.9514 14.32249636138913
1 27386U 02009A   04300.78274141  .00000112  00000-0  57833-4 0  9992
2 27386 098.5494 005.5301 0001084 093.3551 266.7757 14.32249723138953
1 27386U 02009A   04300.92246186 +.00000122 +00000-0 +61447-4 0  9993
2 27386 098.5492 005.6674 0001129 095.4457 264.6857 14.32249836138978
1 27386U 02009A   04301.13204251  .00000128  00000-0  63823-4 0  9990
2 27386 098.5493 005.8742 0001122 095.9438 264.1881 14.32249966139005
1 27386U 02009A   04301.48134361  .00000110  00000-0  56885-4 0  9993
2 27386 098.5494 006.2186 0001103 094.3525 265.7785 14.32249926139053
1 27386U 02009A   04301.83064478  .00000097  00000-0  52168-4 0  9997
2 27386 098.5493 006.5629 0001123 094.7415 265.3894 14.32249922139100
1 27386U 02009A   04302.17994608  .00000083  00000-0  46979-4 0  9990
2 27386 098.5495 006.9071 0001125 094.5589 265.5729 14.32249926139157
1 27386U 02009A   04302.38952643  .00000087  00000-0  48399-4 0  9998
2 27386 098.5496 007.1136 0001114 095.7410 264.3900 14.32250031139187
1 27386U 02009A   04302.38952643  .00000087  00000-0  48399-4 0  9998
2 27386 098.5496 007.1136 0001114 095.7410 264.3900 14.32250031139187
1 27386U 02009A   04302.73882763  .00000067  00000-0  41019-4 0  9992
2 27386 098.5497 007.4587 0001091 093.6577 266.4732 14.32249972139230
1 27386U 02009A   04302.80868784 +.00000064 +00000-0 +39748-4 0  9990
2 27386 098.5498 007.5277 0001083 093.7894 266.3412 14.32249952139245
1 27386U 02009A   04303.15798896  .00000052  00000-0  35352-4 0  9999
2 27386 098.5496 007.8725 0001071 093.0334 267.0981 14.32250018139292
1 27386U 02009A   04303.50728970  .00000072  00000-0  42918-4 0  9992
2 27386 098.5498 008.2169 0001066 094.8885 265.2425 14.32250235139345
1 27386U 02009A   04303.85659042  .00000094  00000-0  51199-4 0  9998
2 27386 098.5498 008.5613 0001115 095.8557 264.2749 14.32250459139395
1 27386U 02009A   04304.13603130  .00000094  00000-0  51199-4 0  9997
2 27386 098.5498 008.8367 0001115 095.0312 265.0999 14.32250536139432
1 27386U 02009A   04304.55519200  .00000116  00000-0  59101-4 0  9993
2 27386 098.5498 009.2500 0001101 097.6166 262.5141 14.32250837139497
1 27386U 02009A   04304.76477248  .00000133  00000-0  65325-4 0  9995
2 27386 098.5496 009.4564 0001084 096.4610 263.6696 14.32251005139527
1 27386U 02009A   04304.90449283 +.00000133 +00000-0 +65325-4 0  9999
2 27386 098.5496 009.5941 0001084 096.0487 264.0820 14.32251055139546
1 27386U 02009A   04305.11407339  .00000135  00000-0  66357-4 0  9997
2 27386 098.5495 009.8007 0001099 096.3488 263.7824 14.32251150139570
1 27386U 02009A   04305.53323455  .00000093  00000-0  50587-4 0  9990
2 27386 098.5493 010.2141 0001089 097.4293 262.7016 14.32250974139630
1 27386U 02009A   04305.81267526  .00000083  00000-0  46871-4 0  9997
2 27386 098.5488 010.4893 0001043 094.3878 265.7423 14.32250974139674
1 27386U 02009A   04305.88253546 +.00000080 +00000-0 +45727-4 0  9997
2 27386 098.5487 010.5581 0001059 095.6837 264.4470 14.32250990139681
1 27386U 02009A   04306.16197592  .00000145  00000-0  69835-4 0  9995
2 27386 098.5488 010.8336 0001015 098.2329 261.9009 14.32251632139729
1 27386U 02009A   04306.44141583  .00000142  00000-0  68750-4 0  9997
2 27386 098.5490 011.1094 0001033 098.3210 261.8097 14.32251718139762
1 27386U 02009A   04306.86057655  .00000148  00000-0  70988-4 0  9991
2 27386 098.5488 011.5223 0001020 095.9120 264.2176 14.32251869139825
1 27386U 02009A   04307.07015706  .00000149  00000-0  71601-4 0  9990
2 27386 098.5488 011.7289 0001018 095.2209 264.9093 14.32251949139854
1 27386U 02009A   04307.48931719  .00000154  00000-0  73405-4 0  9996
2 27386 098.5487 012.1427 0000994 100.3635 259.7661 14.32252235139914
1 27386U 02009A   04307.83861772 +.00000149 +00000-0 +71541-4 0  9999
2 27386 098.5482 012.4862 0001036 105.4762 254.6536 14.32252301139964
